{
  "links" : {
    "next" : "https://api.nasa.gov/neo/rest/v1/feed?start_date=2000-03-16&end_date=2000-03-16&detailed=true&api_key=t0TVs3DtDT2H8Oy2Zy8m2eVrNsAVKAexjcZXUckd",
    "prev" : "https://api.nasa.gov/neo/rest/v1/feed?start_date=2000-03-14&end_date=2000-03-14&detailed=true&api_key=t0TVs3DtDT2H8Oy2Zy8m2eVrNsAVKAexjcZXUckd",
    "self" : "https://api.nasa.gov/neo/rest/v1/feed?start_date=2000-03-15&end_date=2000-03-15&detailed=true&api_key=t0TVs3DtDT2H8Oy2Zy8m2eVrNsAVKAexjcZXUckd"
  },
  "element_count" : 5,
  "near_earth_objects" : {
    "2000-03-15" : [ {
      "links" : {
        "self" : "https://api.nasa.gov/neo/rest/v1/neo/3735598?api_key=t0TVs3DtDT2H8Oy2Zy8m2eVrNsAVKAexjcZXUckd"
      },
      "neo_reference_id" : "3735598",
      "name" : "(2015 WZ12)",
      "nasa_jpl_url" : "http://ssd.jpl.nasa.gov/sbdb.cgi?sstr=3735598",
      "absolute_magnitude_h" : 26.3,
      "estimated_diameter" : {
        "kilometers" : {
          "estimated_diameter_min" : 0.0146067964,
          "estimated_diameter_max" : 0.0326617897
        },
        "meters" : {
          "estimated_diameter_min" : 14.6067964271,
          "estimated_diameter_max" : 32.6617897446
        },
        "miles" : {
          "estimated_diameter_min" : 0.0090762397,
          "estimated_diameter_max" : 0.020295089
        },
        "feet" : {
          "estimated_diameter_min" : 47.92256199,
          "estimated_diameter_max" : 107.1581062656
        }
      },
      "is_potentially_hazardous_asteroid" : false,
      "close_approach_data" : [ {
        "close_approach_date" : "2000-03-15",
        "epoch_date_close_approach" : 953107200000,
        "relative_velocity" : {
          "kilometers_per_second" : "15.248416436",
          "kilometers_per_hour" : "54894.2991696616",
          "miles_per_hour" : "34109.1827257267"
        },
        "miss_distance" : {
          "astronomical" : "0.4871295888",
          "lunar" : "189.4934082031",
          "kilometers" : "72873552",
          "miles" : "45281524"
        },
        "orbiting_body" : "Earth"
      } ],
      "orbital_data" : {
        "orbit_id" : "12",
        "orbit_determination_date" : "2017-04-06 08:30:24",
        "orbit_uncertainty" : "6",
        "minimum_orbit_intersection" : ".00432186",
        "jupiter_tisserand_invariant" : "7.886",
        "epoch_osculation" : "2458000.5",
        "eccentricity" : ".412497153577093",
        "semi_major_axis" : ".7218263391666696",
        "inclination" : "3.626064613278898",
        "ascending_node_longitude" : "251.7612825756624",
        "orbital_period" : "223.9997402608574",
        "perihelion_distance" : ".4240750288834451",
        "perihelion_argument" : "345.7200029380307",
        "aphelion_distance" : "1.019577649449894",
        "perihelion_time" : "2457903.278360738455",
        "mean_anomaly" : "156.2492442776831",
        "mean_motion" : "1.607144720707106",
        "equinox" : "J2000"
      }
    }, {
      "links" : {
        "self" : "https://api.nasa.gov/neo/rest/v1/neo/3772982?api_key=t0TVs3DtDT2H8Oy2Zy8m2eVrNsAVKAexjcZXUckd"
      },
      "neo_reference_id" : "3772982",
      "name" : "(2017 FP101)",
      "nasa_jpl_url" : "http://ssd.jpl.nasa.gov/sbdb.cgi?sstr=3772982",
      "absolute_magnitude_h" : 24.821,
      "estimated_diameter" : {
        "kilometers" : {
          "estimated_diameter_min" : 0.0288638977,
          "estimated_diameter_max" : 0.0645416373
        },
        "meters" : {
          "estimated_diameter_min" : 28.8638976985,
          "estimated_diameter_max" : 64.5416373494
        },
        "miles" : {
          "estimated_diameter_min" : 0.017935189,
          "estimated_diameter_max" : 0.0401043017
        },
        "feet" : {
          "estimated_diameter_min" : 94.6978301251,
          "estimated_diameter_max" : 211.7507854815
        }
      },
      "is_potentially_hazardous_asteroid" : false,
      "close_approach_data" : [ {
        "close_approach_date" : "2000-03-15",
        "epoch_date_close_approach" : 953107200000,
        "relative_velocity" : {
          "kilometers_per_second" : "5.4751599333",
          "kilometers_per_hour" : "19710.5757599365",
          "miles_per_hour" : "12247.3852548339"
        },
        "miss_distance" : {
          "astronomical" : "0.0776734604",
          "lunar" : "30.2149753571",
          "kilometers" : "11619784",
          "miles" : "7220199"
        },
        "orbiting_body" : "Earth"
      } ],
      "orbital_data" : {
        "orbit_id" : "9",
        "orbit_determination_date" : "2017-05-05 06:19:12",
        "orbit_uncertainty" : "6",
        "minimum_orbit_intersection" : ".03864",
        "jupiter_tisserand_invariant" : "5.690",
        "epoch_osculation" : "2458000.5",
        "eccentricity" : ".1277041003277917",
        "semi_major_axis" : "1.086417218515508",
        "inclination" : "6.61689040094888",
        "ascending_node_longitude" : "17.74718252413387",
        "orbital_period" : "413.6122444432071",
        "perihelion_distance" : ".9476772850443632",
        "perihelion_argument" : "82.37875738472366",
        "aphelion_distance" : "1.225157151986653",
        "perihelion_time" : "2458168.032315455000",
        "mean_anomaly" : "214.1831525200857",
        "mean_motion" : ".870380422331601",
        "equinox" : "J2000"
      }
    } ]
  }
}